{
    "links": {
        "self": "http://www.neowsapp.com/rest/v1/neo/3719194?api_key=iIulBulltgU6a56xZRHN4H3l9WmuAYTsLGpBGhQ2"
    },
    "id": "3719194",
    "neo_reference_id": "3719194",
    "name": "(2015 JP1)",
    "designation": "2015 JP1",
    "nasa_jpl_url": "http://ssd.jpl.nasa.gov/sbdb.cgi?sstr=3719194",
    "absolute_magnitude_h": 22.7,
    "estimated_diameter": {
        "kilometers": {
            "estimated_diameter_min": 0.0766575574,
            "estimated_diameter_max": 0.1714115092
        },
        "meters": {
            "estimated_diameter_min": 76.6575573531,
            "estimated_diameter_max": 171.4115092306
        },
        "miles": {
            "estimated_diameter_min": 0.0476327831,
            "estimated_diameter_max": 0.1065101409
        },
        "feet": {
            "estimated_diameter_min": 251.5011804664,
            "estimated_diameter_max": 562.3737359442
        }
    },
    "is_potentially_hazardous_asteroid": false,
    "close_approach_data": [
        {
            "close_approach_date": "2015-05-19",
            "close_approach_date_full": "2015-May-19 04:56",
            "epoch_date_close_approach": 1432011360000,
            "relative_velocity": {
                "kilometers_per_second": "27.016971385",
                "kilometers_per_hour": "97261.0969861307",
                "miles_per_hour": "60434.2632911877"
            },
            "miss_distance": {
                "astronomical": "0.0963350134",
                "lunar": "37.4743202126",
                "kilometers": "14411512.811061458",
                "miles": "8954898.8166178004"
            },
            "orbiting_body": "Earth"
        },
        {
            "close_approach_date": "2015-07-05",
            "close_approach_date_full": "2015-Jul-05 16:29",
            "epoch_date_close_approach": 1436113740000,
            "relative_velocity": {
                "kilometers_per_second": "30.8743193641",
                "kilometers_per_hour": "111147.549710674",
                "miles_per_hour": "69062.7649855018"
            },
            "miss_distance": {
                "astronomical": "0.0736122585",
                "lunar": "28.6351685565",
                "kilometers": "11012237.077489395",
                "miles": "6842686.820347851"
            },
            "orbiting_body": "Merc"
        }
    ],
    "orbital_data": {
        "orbit_id": "7",
        "orbit_determination_date": "2017-07-04 06:19:06",
        "first_observation_date": "2015-05-13",
        "last_observation_date": "2015-05-18",
        "data_arc_in_days": 5,
        "observations_used": 31,
        "orbit_uncertainty": "9",
        "minimum_orbit_intersection": ".0800189",
        "jupiter_tisserand_invariant": "3.017",
        "epoch_osculation": "2457157.5",
        "eccentricity": ".8344349325301972",
        "semi_major_axis": "2.267224410581585",
        "inclination": "7.271305454225216",
        "ascending_node_longitude": "196.9078555169783",
        "orbital_period": "1246.924591783659",
        "perihelion_distance": ".375373162507124",
        "perihelion_argument": "151.2098015752344",
        "aphelion_distance": "4.159075658656046",
        "perihelion_time": "2457206.378591369924",
        "mean_anomaly": "345.8882461625028",
        "mean_motion": ".2887103216763408",
        "equinox": "J2000",
        "orbit_class": {
            "orbit_class_type": "APO",
            "orbit_class_description": "Near-Earth asteroid orbits which cross the Earth’s orbit similar to that of 1862 Apollo",
            "orbit_class_range": "a (semi-major axis) > 1.0 AU; q (perihelion) < 1.017 AU"
        }
    },
    "is_sentry_object": false
}